STARLINK-1553
1 26348C 20062AA  21325.13420237  .00013499  00000-0  90470-3 0  3252
2 26348  53.0537 202.6223 0002520  47.7219 166.7494 15.06373096    14
